NORAD_CAT_ID,OBJECT_NAME,OBJECT_TYPE,EPOCH,MEAN_MOTION,ECCENTRICITY,INCLINATION,RA_OF_ASC_NODE,ARG_OF_PERICENTER,MEAN_ANOMALY,BSTAR,MEAN_MOTION_DOT,MEAN_MOTION_DDOT,TLE_LINE0,TLE_LINE1,TLE_LINE2,SEMIMAJOR_AXIS,PERIOD,APOGEE,PERIGEE,DECAYED
52860.0,STARLINK-4191,PAYLOAD,2024-08-02 18:41:07,15.08825185,0.0001891,53.2182,125.4031,86.9214,273.1995,-2.1054e-05,-6.23e-06,0.0,0 STARLINK-4191,1 52860U 22062AG  24215.77856437 -.00000623  00000-0 -21054-4 0  9993,2 52860  53.2182 125.4031 0001891  86.9214 273.1995 15.08825185118266,6917.926,95.438,541.099,538.482,0.0
52860.0,STARLINK-4191,PAYLOAD,2024-08-02 21:51:54,15.08822232,0.000155,53.2186,124.8094,98.9869,261.1298,-4.5597e-05,-1.013e-05,0.0,0 STARLINK-4191,1 52860U 22062AG  24215.91104718 -.00001013  00000-0 -45597-4 0  9999,2 52860  53.2186 124.8094 0001550  98.9869 261.1298 15.08822232117793,6917.935,95.439,540.872,538.727,0.0
52860.0,STARLINK-4191,PAYLOAD,2024-08-03 10:34:59,15.08832716,0.0001516,53.2185,122.4337,102.701,257.4151,-2.5229e-05,-6.89e-06,0.0,0 STARLINK-4191,1 52860U 22062AG  24216.44096396 -.00000689  00000-0 -25229-4 0  9998,2 52860  53.2185 122.4337 0001516 102.7010 257.4151 15.08832716117873,6917.903,95.438,540.816,538.719,0.0
52860.0,STARLINK-4191,PAYLOAD,2024-08-03 21:42:40,15.08849063,0.0001393,53.2173,120.3495,90.9014,269.2138,4.8316e-05,4.81e-06,0.0,0 STARLINK-4191,1 52860U 22062AG  24216.90463203  .00000481  00000-0  48316-4 0  9994,2 52860  53.2173 120.3495 0001393  90.9014 269.2138 15.08849063117944,6917.853,95.437,540.681,538.754,0.0
52860.0,STARLINK-4191,PAYLOAD,2024-08-03 23:18:03,15.08849548,0.0001258,53.216,120.0476,71.4407,288.6722,4.3603e-05,4.06e-06,0.0,0 STARLINK-4191,1 52860U 22062AG  24216.97087160  .00000406  00000-0  43603-4 0  9996,2 52860  53.2160 120.0476 0001258  71.4407 288.6722 15.08849548118444,6917.851,95.437,540.586,538.846,0.0
52860.0,STARLINK-4191,PAYLOAD,2024-08-04 10:25:45,15.08849691,0.0001321,53.2159,117.9632,76.1079,284.006,-2.4535e-05,-6.78e-06,0.0,0 STARLINK-4191,1 52860U 22062AG  24217.43455136 -.00000678  00000-0 -24535-4 0  9996,2 52860  53.2159 117.9632 0001321  76.1079 284.0060 15.08849691118027,6917.851,95.437,540.63,538.802,0.0
52860.0,STARLINK-4191,PAYLOAD,2024-08-04 21:33:28,15.08827549,0.0001824,53.2186,115.891,96.6067,263.5133,0.00015533,2.184e-05,0.0,0 STARLINK-4191,1 52860U 22062AG  24217.89824703  .00002184  00000-0  15533-3 0  9995,2 52860  53.2186 115.8910 0001824  96.6067 263.5133 15.08827549118587,6917.918,95.438,541.045,538.522,0.0
52860.0,STARLINK-4191,PAYLOAD,2024-08-04 23:08:51,15.0883292,0.0001817,53.2174,115.5914,90.1948,269.9252,0.0001403,1.945e-05,0.0,0 STARLINK-4191,1 52860U 22062AG  24217.96448460  .00001945  00000-0  14030-3 0  9990,2 52860  53.2174 115.5914 0001817  90.1948 269.9252 15.08832920118103,6917.902,95.438,541.024,538.51,0.0
52860.0,STARLINK-4191,PAYLOAD,2024-08-05 00:44:13,15.08845058,0.0001416,53.2164,115.2892,79.5512,280.5639,0.00022277,3.26e-05,0.0,0 STARLINK-4191,1 52860U 22062AG  24218.03071454  .00003260  00000-0  22277-3 0  9998,2 52860  53.2164 115.2892 0001416  79.5512 280.5639 15.08845058118606,6917.865,95.437,540.709,538.75,0.0
52860.0,STARLINK-4191,PAYLOAD,2024-08-05 21:24:16,15.08827406,0.0001413,53.2158,111.4239,84.5066,275.6087,-7.7644e-05,-1.523e-05,0.0,0 STARLINK-4191,1 52860U 22062AG  24218.89185507 -.00001523  00000-0 -77644-4 0  9998,2 52860  53.2158 111.4239 0001413  84.5066 275.6087 15.08827406118732,6917.919,95.438,540.761,538.806,0.0
52860.0,STARLINK-4191,PAYLOAD,2024-08-05 22:59:39,15.08825673,0.000117,53.2153,111.1279,86.1254,273.9871,-9.4318e-05,-1.788e-05,0.0,0 STARLINK-4191,1 52860U 22062AG  24218.95809653 -.00001788  00000-0 -94318-4 0  9990,2 52860  53.2153 111.1279 0001170  86.1254 273.9871 15.08825673118258,6917.924,95.438,540.599,538.98,0.0
52860.0,STARLINK-4191,PAYLOAD,2024-08-06 00:35:01,15.08837245,0.0001452,53.2165,110.8305,88.4184,271.6975,2.0477e-05,3.8e-07,0.0,0 STARLINK-4191,1 52860U 22062AG  24219.02432708  .00000038  00000-0  20477-4 0  9992,2 52860  53.2165 110.8305 0001452  88.4184 271.6975 15.08837245118750,6917.889,95.438,540.758,538.749,0.0
52860.0,STARLINK-4191,PAYLOAD,2024-08-06 21:15:02,15.08832989,0.0001353,53.2159,106.9639,86.7836,273.3311,0.00023216,3.408e-05,0.0,0 STARLINK-4191,1 52860U 22062AG  24219.88544901  .00003408  00000-0  23216-3 0  9992,2 52860  53.2159 106.9639 0001353  86.7836 273.3311 15.08832989118397,6917.902,95.438,540.703,538.831,0.0
52860.0,STARLINK-4191,PAYLOAD,2024-08-06 22:50:25,15.08842893,0.0001392,53.2154,106.668,85.1649,274.9503,0.00010761,1.425e-05,0.0,0 STARLINK-4191,1 52860U 22062AG  24219.95168498  .00001425  00000-0  10761-3 0  9991,2 52860  53.2154 106.6680 0001392  85.1649 274.9503 15.08842893118400,6917.872,95.437,540.7,538.774,0.0
52860.0,STARLINK-4191,PAYLOAD,2024-08-07 21:05:49,15.08841196,0.0001457,53.2147,102.5048,81.4165,278.6992,0.0005653,8.721e-05,0.0,0 STARLINK-4191,1 52860U 22062AG  24220.87904804  .00008721  00000-0  56530-3 0  9993,2 52860  53.2147 102.5048 0001457  81.4165 278.6992 15.08841196119037,6917.877,95.437,540.75,538.734,0.0
52860.0,STARLINK-4191,PAYLOAD,2024-08-08 22:31:59,15.08848448,0.0001533,53.2165,97.7463,81.4691,278.6475,0.00010616,1.402e-05,0.0,0 STARLINK-4191,1 52860U 22062AG  24221.93887948  .00001402  00000-0  10616-3 0  9994,2 52860  53.2165  97.7463 0001533  81.4691 278.6475 15.08848448119192,6917.855,95.437,540.78,538.659,0.0
52860.0,STARLINK-4191,PAYLOAD,2024-08-09 20:47:23,15.08841124,0.0001369,53.2183,93.5852,84.7581,275.3567,7.6991e-05,9.38e-06,0.0,0 STARLINK-4191,1 52860U 22062AG  24222.86624363  .00000938  00000-0  76991-4 0  9999,2 52860  53.2183  93.5852 0001369  84.7581 275.3567 15.08841124119335,6917.877,95.437,540.689,538.795,0.0
52860.0,STARLINK-4191,PAYLOAD,2024-08-09 22:22:45,15.08851504,0.0001214,53.2169,93.2855,93.224,266.8891,0.00018202,2.611e-05,0.0,0 STARLINK-4191,1 52860U 22062AG  24222.93247456  .00002611  00000-0  18202-3 0  9991,2 52860  53.2169  93.2855 0001214  93.2240 266.8891 15.08851504119344,6917.845,95.437,540.55,538.87,0.0
52860.0,STARLINK-4191,PAYLOAD,2024-08-10 14:16:38,15.08828432,0.0001269,53.2157,90.3119,82.7709,277.3427,-0.00014316,-2.565e-05,0.0,0 STARLINK-4191,1 52860U 22062AG  24223.59489077 -.00002565  00000-0 -14316-3 0  9993,2 52860  53.2157  90.3119 0001269  82.7709 277.3427 15.08828432118957,6917.916,95.438,540.659,538.903,0.0
52860.0,STARLINK-4191,PAYLOAD,2024-08-10 20:38:11,15.0882559,0.0001391,53.2162,89.1206,91.175,268.9401,-0.00015051,-2.682e-05,0.0,0 STARLINK-4191,1 52860U 22062AG  24223.85985427 -.00002682  00000-0 -15051-3 0  9999,2 52860  53.2162  89.1206 0001391  91.1750 268.9401 15.08825590119481,6917.924,95.438,540.752,538.827,0.0
52860.0,STARLINK-4191,PAYLOAD,2024-08-11 07:45:52,15.08849562,0.0001236,53.2168,87.0429,81.0724,279.0408,0.00018636,2.68e-05,0.0,0 STARLINK-4191,1 52860U 22062AG  24224.32352234  .00002680  00000-0  18636-3 0  9994,2 52860  53.2168  87.0429 0001236  81.0724 279.0408 15.08849562119551,6917.851,95.437,540.571,538.861,0.0
52860.0,STARLINK-4191,PAYLOAD,2024-08-11 15:42:48,15.08843494,0.0001944,53.218,85.5603,103.9442,256.1766,5.8974e-05,6.51e-06,0.0,0 STARLINK-4191,1 52860U 22062AG  24224.65472832  .00000651  00000-0  58974-4 0  9993,2 52860  53.2180  85.5603 0001944 103.9442 256.1766 15.08843494119606,6917.87,95.437,541.08,538.39,0.0
52860.0,STARLINK-4191,PAYLOAD,2024-08-11 22:04:20,15.08856131,0.0001036,53.217,84.3649,97.4732,262.6378,0.00025638,3.797e-05,0.0,0 STARLINK-4191,1 52860U 22062AG  24224.91967956  .00003797  00000-0  25638-3 0  9992,2 52860  53.2170  84.3649 0001036  97.4732 262.6378 15.08856131119156,6917.831,95.437,540.413,538.979,0.0
52860.0,STARLINK-4191,PAYLOAD,2024-08-12 01:15:06,15.08860259,0.0001527,53.2169,83.7699,103.2335,256.8828,0.000306,4.588e-05,0.0,0 STARLINK-4191,1 52860U 22062AG  24225.05215676  .00004588  00000-0  30600-3 0  9997,2 52860  53.2169  83.7699 0001527 103.2335 256.8828 15.08860259119669,6917.818,95.436,540.74,538.627,0.0
52860.0,STARLINK-4191,PAYLOAD,2024-08-12 07:36:39,15.08845176,0.0002717,53.2172,82.5788,75.3287,284.8006,7.8052e-05,9.54e-06,0.0,0 STARLINK-4191,1 52860U 22062AG  24225.31712770  .00000954  00000-0  78052-4 0  9990,2 52860  53.2172  82.5788 0002717  75.3287 284.8006 15.08845176119701,6917.865,95.437,541.609,537.85,0.0
52860.0,STARLINK-4191,PAYLOAD,2024-08-13 07:27:26,15.08821852,0.0001346,53.2157,78.1211,87.3345,272.7801,-0.00052669,-8.656e-05,0.0,0 STARLINK-4191,1 52860U 22062AG  24226.31072740 -.00008656  00000-0 -52669-3 0  9991,2 52860  53.2157  78.1211 0001346  87.3345 272.7801 15.08821852119851,6917.936,95.439,540.732,538.87,0.0
52860.0,STARLINK-4191,PAYLOAD,2024-08-13 20:10:34,15.08793049,9.44e-05,53.2174,75.7402,105.8719,254.2377,-0.00050664,-8.331e-05,0.0,0 STARLINK-4191,1 52860U 22062AG  24226.84067891 -.00008331  00000-0 -50664-3 0  9993,2 52860  53.2174  75.7402 0000944 105.8719 254.2377 15.08793049119937,6918.024,95.441,540.542,539.236,0.0
52860.0,STARLINK-4191,PAYLOAD,2024-08-13 21:45:57,15.08808751,0.0001994,53.2168,75.444,92.9173,267.2047,-0.00049451,-8.143e-05,0.0,0 STARLINK-4191,1 52860U 22062AG  24226.90691358 -.00008143  00000-0 -49451-3 0  9994,2 52860  53.2168  75.4440 0001994  92.9173 267.2047 15.08808751119457,6917.976,95.44,541.22,538.461,0.0
52860.0,STARLINK-4191,PAYLOAD,2024-08-14 07:18:15,15.08831784,0.0002032,53.2176,73.6588,103.663,256.4589,0.0001048,1.38e-05,0.0,0 STARLINK-4191,1 52860U 22062AG  24227.30434811  .00001380  00000-0  10480-3 0  9992,2 52860  53.2176  73.6588 0002032 103.6630 256.4589 15.08831784120007,6917.906,95.438,541.176,538.365,0.0
52860.0,STARLINK-4191,PAYLOAD,2024-08-14 20:01:20,15.08835819,0.0001595,53.2144,71.2829,92.5156,267.6019,0.00058041,8.96e-05,0.0,0 STARLINK-4191,1 52860U 22062AG  24227.83426355  .00008960  00000-0  58041-3 0  9990,2 52860  53.2144  71.2829 0001595  92.5156 267.6019 15.08835819120089,6917.893,95.438,540.862,538.655,0.0
